TEIKYOSAT-4 (OORURI)    
1 49396U 21102B   26068.67534185  .00002438  00000+0  15740-3 0  9994
2 49396  97.3797 101.9931 0010345 276.5421  83.4630 15.09119208237719
STARLINK-4420           
1 53654U 22105G   26068.67222330  .00000415  00000+0  33005-4 0  9994
2 53654  97.6024 311.1617 0002092  91.2741 268.8726 15.05644598193290
